[{"OBJECT_NAME":"STARLINK-5897","OBJECT_ID":"2023-037T","EPOCH":"2026-03-09T23:17:46.995648","MEAN_MOTION":14.98333859,"ECCENTRICITY":0.00032886,"INCLINATION":69.9985,"RA_OF_ASC_NODE":303.5706,"ARG_OF_PERICENTER":272.7263,"MEAN_ANOMALY":87.352,"EPHEMERIS_TYPE":0,"CLASSIFICATION_TYPE":"U","NORAD_CAT_ID":55931,"ELEMENT_SET_NO":999,"REV_AT_EPOCH":16353,"BSTAR":5.1350876e-5,"MEAN_MOTION_DOT":5.2e-6,"MEAN_MOTION_DDOT":0},{"OBJECT_NAME":"FENGYUN 1C DEB","OBJECT_ID":"1999-025EB","EPOCH":"2026-03-09T21:27:48.971520","MEAN_MOTION":14.9364801,"ECCENTRICITY":0.00856057,"INCLINATION":99.085,"RA_OF_ASC_NODE":69.4314,"ARG_OF_PERICENTER":339.4426,"MEAN_ANOMALY":20.3352,"EPHEMERIS_TYPE":0,"CLASSIFICATION_TYPE":"U","NORAD_CAT_ID":29833,"ELEMENT_SET_NO":999,"REV_AT_EPOCH":1871,"BSTAR":0.0015409165,"MEAN_MOTION_DOT":0.00017454,"MEAN_MOTION_DDOT":0}]
